1 41181U 15081C   19282.79685694 -.00000077  00000-0  23408-4 0  9992
2 41181  47.0022  69.4348 0001562  12.7167 347.3752 14.43359405200656
1 41181U 15081C   19282.86608014 -.00000078 +00000-0 +23207-4 0  9999
2 41181 047.0022 069.1156 0001559 013.0865 347.0055 14.43359416200559
1 41181U 15081C   19283.83520482 -.00000087 +00000-0 +20656-4 0  9994
2 41181 047.0024 064.6462 0001496 017.6737 342.4194 14.43359555200691
1 41181U 15081C   19283.90442801 -.00000088  00000-0  20314-4 0  9992
2 41181  47.0024  64.3270 0001493  17.9623 342.1309 14.43359566200810
